*******************************************************************************
Ephemeris / WWW_USER Mon Mar 24 06:45:22 2025 Pasadena, USA      / Horizons    
*******************************************************************************
Target body name: (2018 RA1)                      {source: JPL#6}
Center body name: Earth (399)                     {source: DE441}
Center-site name: Gemini South Obs., Cerro Pachon
*******************************************************************************
Start time      : A.D. 2018-Sep-18 22:45:00.0000 UT      
Stop  time      : A.D. 2018-Sep-19 10:28:00.0000 UT      
Step-size       : 1 minutes
*******************************************************************************
Target pole/equ : undefined
Target radii    : undefined                                                    
Center geodetic : 289.2634, -30.2406227, 2.71233  {E-lon(deg),Lat(deg),Alt(km)}
Center cylindric: 289.2634,5517.21435,-3194.81213 {E-lon(deg),Dxy(km),Dz(km)}
Center pole/equ : ITRF93                          {East-longitude positive}
Center radii    : 6378.137, 6378.137, 6356.752 km {Equator_a, b, pole_c}       
Target primary  : Sun
Vis. interferer : MOON (R_eq= 1737.400) km        {source: DE441}
Rel. light bend : Sun                             {source: DE441}
Rel. lght bnd GM: 1.3271E+11 km^3/s^2                                          
Small-body perts: Yes                             {source: SB441-N16}
Atmos refraction: NO (AIRLESS)
RA format       : HMS
Time format     : CAL 
Calendar mode   : Mixed Julian/Gregorian
RTS-only print  : NO       
EOP file        : eop.250321.p250617                                           
EOP coverage    : DATA-BASED 1962-JAN-20 TO 2025-MAR-21. PREDICTS-> 2025-JUN-16
Units conversion: 1 au= 149597870.700 km, c= 299792.458 km/s, 1 day= 86400.0 s 
Table cut-offs 1: Elevation (-90.0deg=NO ),Airmass (>38.000=NO), Daylight (YES)
Table cut-offs 2: Solar elongation (  0.0,180.0=NO ),Local Hour Angle( 0.0=NO )
Table cut-offs 3: RA/DEC angular rate (     0.0=NO )                           
*******************************************************************************
Initial IAU76/J2000 heliocentric ecliptic osculating elements (au, days, deg.):
  EPOCH=  2458369.5 ! 2018-Sep-08.00 (TDB)         Residual RMS= .21275        
   EC= .3232115344739424   QR= .7703453101153647   TP= 2458436.6763547547      
   OM= 166.2054176892707   W=  269.7217787981747   IN= 8.763099478405824       
  Equivalent ICRF heliocentric cartesian coordinates (au, au/d):
   X= 9.899686155013647E-01  Y=-2.468208982240139E-01  Z=-1.030323866474361E-01
  VX=-9.411283005844916E-04 VY= 1.717513364149167E-02 VZ= 4.613440841260365E-03
Asteroid physical parameters (km, seconds, rotational period in hours):        
   GM= n.a.                RAD= n.a.               ROTPER= n.a.                
   H= 26.4                 G= .150                 B-V= n.a.                   
                           ALBEDO= n.a.            STYP= n.a.                  
*******************************************************************************
 Date__(UT)__HR:MN     R.A._________(ICRF)_________DEC
******************************************************
$$SOE
 2018-Sep-19 00:48  m  10 44 22.565572 -26 22 51.70096
 2018-Sep-19 00:49  m  10 44 22.555225 -26 22 49.14773
 2018-Sep-19 00:50  m  10 44 22.545035 -26 22 46.59594
 2018-Sep-19 00:51  m  10 44 22.535001 -26 22 44.04558
 2018-Sep-19 00:52  m  10 44 22.525122 -26 22 41.49667
 2018-Sep-19 00:53  m  10 44 22.515398 -26 22 38.94919
 2018-Sep-19 00:54  m  10 44 22.505827 -26 22 36.40316
 2018-Sep-19 00:55  m  10 44 22.496410 -26 22 33.85858
 2018-Sep-19 00:56  m  10 44 22.487144 -26 22 31.31545
 2018-Sep-19 00:57  m  10 44 22.478030 -26 22 28.77378
 2018-Sep-19 00:58  m  10 44 22.469066 -26 22 26.23356
 2018-Sep-19 00:59  m  10 44 22.460251 -26 22 23.69481
 2018-Sep-19 01:00  m  10 44 22.451586 -26 22 21.15753
 2018-Sep-19 01:01  m  10 44 22.443068 -26 22 18.62172
 2018-Sep-19 01:02  m  10 44 22.434698 -26 22 16.08738
 2018-Sep-19 01:03  m  10 44 22.426474 -26 22 13.55451
 2018-Sep-19 01:04  m  10 44 22.418395 -26 22 11.02313
 2018-Sep-19 01:05  m  10 44 22.410462 -26 22 08.49323
 2018-Sep-19 01:06  m  10 44 22.402672 -26 22 05.96481
 2018-Sep-19 01:07  m  10 44 22.395025 -26 22 03.43788
 2018-Sep-19 01:08  m  10 44 22.387520 -26 22 00.91245
 2018-Sep-19 01:09  m  10 44 22.380156 -26 21 58.38851
 2018-Sep-19 01:10  m  10 44 22.372933 -26 21 55.86607
 2018-Sep-19 01:11  m  10 44 22.365850 -26 21 53.34514
 2018-Sep-19 01:12  m  10 44 22.358906 -26 21 50.82570
 2018-Sep-19 01:13  m  10 44 22.352099 -26 21 48.30778
 2018-Sep-19 01:14  m  10 44 22.345430 -26 21 45.79137
 2018-Sep-19 01:15  m  10 44 22.338897 -26 21 43.27647
 2018-Sep-19 01:16  m  10 44 22.332499 -26 21 40.76309
 2018-Sep-19 01:17  m  10 44 22.326236 -26 21 38.25123
 2018-Sep-19 01:18  m  10 44 22.320106 -26 21 35.74089
 2018-Sep-19 01:19  m  10 44 22.314110 -26 21 33.23208
 2018-Sep-19 01:20  m  10 44 22.308245 -26 21 30.72480
 2018-Sep-19 01:21  m  10 44 22.302512 -26 21 28.21905
 2018-Sep-19 01:22  m  10 44 22.296908 -26 21 25.71484
 2018-Sep-19 01:23  m  10 44 22.291434 -26 21 23.21216
 2018-Sep-19 01:24  m  10 44 22.286089 -26 21 20.71102
 2018-Sep-19 01:25  m  10 44 22.280871 -26 21 18.21143
 2018-Sep-19 01:26  m  10 44 22.275780 -26 21 15.71339
 2018-Sep-19 01:27  m  10 44 22.270815 -26 21 13.21689
 2018-Sep-19 01:28  m  10 44 22.265975 -26 21 10.72194
 2018-Sep-19 01:29  m  10 44 22.261259 -26 21 08.22855
 2018-Sep-19 01:30  m  10 44 22.256666 -26 21 05.73672
 2018-Sep-19 01:31  m  10 44 22.252196 -26 21 03.24645
 2018-Sep-19 01:32  m  10 44 22.247847 -26 21 00.75773
 2018-Sep-19 01:33  m  10 44 22.243618 -26 20 58.27059
 2018-Sep-19 01:34  m  10 44 22.239509 -26 20 55.78501
 2018-Sep-19 01:35  m  10 44 22.235519 -26 20 53.30100
 2018-Sep-19 01:36  m  10 44 22.231647 -26 20 50.81857
 2018-Sep-19 01:37  m  10 44 22.227892 -26 20 48.33771
 2018-Sep-19 01:38  m  10 44 22.224253 -26 20 45.85843
 2018-Sep-19 01:39  m  10 44 22.220729 -26 20 43.38073
 2018-Sep-19 01:40  m  10 44 22.217320 -26 20 40.90461
 2018-Sep-19 01:41  m  10 44 22.214024 -26 20 38.43007
 2018-Sep-19 01:42  m  10 44 22.210840 -26 20 35.95713
 2018-Sep-19 01:43  m  10 44 22.207768 -26 20 33.48577
 2018-Sep-19 01:44  m  10 44 22.204806 -26 20 31.01601
 2018-Sep-19 01:45  m  10 44 22.201955 -26 20 28.54784
 2018-Sep-19 01:46  m  10 44 22.199212 -26 20 26.08127
 2018-Sep-19 01:47  m  10 44 22.196577 -26 20 23.61630
 2018-Sep-19 01:48  m  10 44 22.194049 -26 20 21.15293
 2018-Sep-19 01:49  m  10 44 22.191627 -26 20 18.69117
 2018-Sep-19 01:50  m  10 44 22.189310 -26 20 16.23101
 2018-Sep-19 01:51  m  10 44 22.187098 -26 20 13.77246
 2018-Sep-19 01:52  m  10 44 22.184989 -26 20 11.31552
 2018-Sep-19 01:53  m  10 44 22.182982 -26 20 08.86019
 2018-Sep-19 01:54  m  10 44 22.181077 -26 20 06.40648
 2018-Sep-19 01:55  m  10 44 22.179272 -26 20 03.95438
 2018-Sep-19 01:56  m  10 44 22.177567 -26 20 01.50390
 2018-Sep-19 01:57  m  10 44 22.175960 -26 19 59.05505
 2018-Sep-19 01:58  m  10 44 22.174451 -26 19 56.60781
 2018-Sep-19 01:59  m  10 44 22.173039 -26 19 54.16221
 2018-Sep-19 02:00  m  10 44 22.171723 -26 19 51.71823
 2018-Sep-19 02:01  m  10 44 22.170502 -26 19 49.27587
 2018-Sep-19 02:02  m  10 44 22.169375 -26 19 46.83515
 2018-Sep-19 02:03  m  10 44 22.168341 -26 19 44.39606
 2018-Sep-19 02:04  m  10 44 22.167399 -26 19 41.95861
 2018-Sep-19 02:05  m  10 44 22.166548 -26 19 39.52279
 2018-Sep-19 02:06  m  10 44 22.165788 -26 19 37.08862
 2018-Sep-19 02:07  m  10 44 22.165117 -26 19 34.65608
 2018-Sep-19 02:08  m  10 44 22.164534 -26 19 32.22518
 2018-Sep-19 02:09  m  10 44 22.164038 -26 19 29.79593
 2018-Sep-19 02:10  m  10 44 22.163629 -26 19 27.36832
 2018-Sep-19 02:11  m  10 44 22.163306 -26 19 24.94236
 2018-Sep-19 02:12  m  10 44 22.163067 -26 19 22.51805
 2018-Sep-19 02:13  m  10 44 22.162911 -26 19 20.09539
 2018-Sep-19 02:14  m  10 44 22.162838 -26 19 17.67438
 2018-Sep-19 02:15  m  10 44 22.162847 -26 19 15.25502
 2018-Sep-19 02:16  m  10 44 22.162937 -26 19 12.83732
 2018-Sep-19 02:17  m  10 44 22.163106 -26 19 10.42128
 2018-Sep-19 02:18  m  10 44 22.163354 -26 19 08.00690
 2018-Sep-19 02:19  m  10 44 22.163680 -26 19 05.59417
 2018-Sep-19 02:20  m  10 44 22.164083 -26 19 03.18311
 2018-Sep-19 02:21  m  10 44 22.164562 -26 19 00.77371
 2018-Sep-19 02:22  m  10 44 22.165116 -26 18 58.36597
 2018-Sep-19 02:23  m  10 44 22.165744 -26 18 55.95990
 2018-Sep-19 02:24  m  10 44 22.166444 -26 18 53.55549
 2018-Sep-19 02:25  m  10 44 22.167217 -26 18 51.15276
 2018-Sep-19 02:26  m  10 44 22.168061 -26 18 48.75169
 2018-Sep-19 02:27  m  10 44 22.168975 -26 18 46.35230
 2018-Sep-19 02:28  m  10 44 22.169959 -26 18 43.95458
 2018-Sep-19 02:29  m  10 44 22.171010 -26 18 41.55853
 2018-Sep-19 02:30  m  10 44 22.172129 -26 18 39.16415
 2018-Sep-19 02:31  m  10 44 22.173314 -26 18 36.77145
 2018-Sep-19 02:32  m  10 44 22.174564 -26 18 34.38043
 2018-Sep-19 02:33  m  10 44 22.175878 -26 18 31.99109
 2018-Sep-19 02:34  m  10 44 22.177256 -26 18 29.60342
 2018-Sep-19 02:35  m  10 44 22.178696 -26 18 27.21744
 2018-Sep-19 02:36  m  10 44 22.180198 -26 18 24.83314
 2018-Sep-19 02:37  m  10 44 22.181760 -26 18 22.45052
 2018-Sep-19 02:38  m  10 44 22.183381 -26 18 20.06958
 2018-Sep-19 02:39  m  10 44 22.185061 -26 18 17.69033
 2018-Sep-19 02:40  m  10 44 22.186798 -26 18 15.31277
 2018-Sep-19 02:41  m  10 44 22.188592 -26 18 12.93689
 2018-Sep-19 02:42  m  10 44 22.190441 -26 18 10.56269
 2018-Sep-19 02:43  m  10 44 22.192345 -26 18 08.19019
 2018-Sep-19 02:44  m  10 44 22.194302 -26 18 05.81938
 2018-Sep-19 02:45  m  10 44 22.196312 -26 18 03.45025
 2018-Sep-19 02:46  m  10 44 22.198373 -26 18 01.08282
 2018-Sep-19 02:47  m  10 44 22.200485 -26 17 58.71708
 2018-Sep-19 02:48  m  10 44 22.202647 -26 17 56.35303
 2018-Sep-19 02:49  m  10 44 22.204857 -26 17 53.99067
 2018-Sep-19 02:50  m  10 44 22.207115 -26 17 51.63001
